COSMOS 2251 DEB         
1 34122U 93036KT  21273.35364020  .00001072  00000-0  29121-3 0  9999
2 34122  74.0429 129.8288 0114407  54.7145 119.2004 14.44976184664114
COSMOS 2251 DEB         
1 34123U 93036KU  21273.50875816  .00002975  00000-0  69599-3 0  9993
2 34123  74.0276  69.7395 0016565 128.9366 287.9854 14.54996652665997
COSMOS 2251 DEB         
1 34124U 93036KV  21273.37505562  .00003809  00000-0  79799-3 0  9997
2 34124  74.0277  30.2031 0018162 103.8330 256.4858 14.59987161667152
COSMOS 2251 DEB         
1 34126U 93036KX  21273.43914036  .00001891  00000-0  30448-3 0  9993
2 34126  74.0037 160.3021 0058178   8.1983 166.4207 14.71163667674162
COSMOS 2251 DEB         
1 34127U 93036KY  21273.38313267  .00000952  00000-0  46022-3 0  9999
2 34127  74.1891 249.3487 0137980 153.4015 357.6511 14.14902462649733
COSMOS 2251 DEB         
1 34128U 93036KZ  21274.00837003  .00001772  00000-0  42144-3 0  9991
2 34128  74.0186  23.1447 0068683 163.0569 315.9896 14.53192703667025
COSMOS 2251 DEB         
1 34129U 93036LA  21274.00481885  .00001115  00000-0  27376-3 0  9996
2 34129  74.0486  29.2791 0048150 145.2771 215.1551 14.52871308667294
COSMOS 2251 DEB         
1 34130U 93036LB  21273.50197268  .00002379  00000-0  44498-3 0  9998
2 34130  74.0292 289.5794 0020599  72.1432 288.1981 14.65323995670675
COSMOS 2251 DEB         
1 34131U 93036LC  21274.43686973  .00004824  00000-0  90555-3 0  9990
2 34131  74.1224  33.0366 0010965 349.9309  74.4826 14.64941808668818
COSMOS 2251 DEB         
1 34136U 93036LH  21274.10447742  .00000361  00000-0  64708-4 0  9992
2 34136  74.0234 148.6376 0109250 300.3859 211.4648 14.67173394674726
COSMOS 2251 DEB         
1 34139U 93036LL  21274.03920650  .00001138  00000-0  37883-3 0  9997
2 34139  74.0369 232.9527 0062116 321.4111 118.5367 14.37687875660054
COSMOS 2251 DEB         
1 34141U 93036LN  21273.53024163  .00000876  00000-0  34339-3 0  9999
2 34141  74.0174 332.9701 0070064  60.6735  63.2126 14.29560948656596
COSMOS 2251 DEB         
1 34142U 93036LP  21274.11405573  .00002104  00000-0  35164-3 0  9996
2 34142  73.9938 186.0094 0045548  24.6585  84.8853 14.69891391673136
COSMOS 2251 DEB         
1 34270U 93036LQ  21273.51052528  .00000375  00000-0  96075-4 0  9996
2 34270  74.0179 347.0923 0059422 158.3190 202.0508 14.52902627667423
COSMOS 2251 DEB         
1 34271U 93036LR  21273.51541932  .00001257  00000-0  40004-3 0  9999
2 34271  74.0343 204.7704 0040135 275.3722 203.2299 14.40456910659871
COSMOS 2251 DEB         
1 34273U 93036LT  21273.51331580  .00000685  00000-0  19743-3 0  9997
2 34273  74.0395  96.7316 0019411 236.4197 154.6555 14.46469621663727
COSMOS 2251 DEB         
1 34274U 93036LU  21273.52189410  .00000838  00000-0  23922-3 0  9996
2 34274  74.0099  88.8159 0030348 242.7882 180.5077 14.46506854664019
COSMOS 2251 DEB         
1 34275U 93036LV  21273.56477089  .00001371  00000-0  35855-3 0  9994
2 34275  74.0328 103.7685 0011625 173.9034 245.0795 14.50284326663506
COSMOS 2251 DEB         
1 34276U 93036LW  21273.50075889  .00000553  00000-0  16298-3 0  9992
2 34276  74.0262  88.4444 0027168 247.4280 142.3299 14.45769710663726
COSMOS 2251 DEB         
1 34277U 93036LX  21274.48773991  .00020700  00000-0  14813-2 0  9996
2 34277  73.6880 195.6793 0023331 109.6444 250.7263 15.04160323679447
COSMOS 2251 DEB         
1 34292U 93036MN  21274.00294213  .00002868  00000-0  37782-3 0  9992
2 34292  74.0597 115.2801 0065483 206.8373 152.9412 14.79132498676064
COSMOS 2251 DEB         
1 34293U 93036MP  21274.14388786  .00003832  00000-0  28022-3 0  9996
2 34293  73.9680 277.0495 0065059 199.8705 231.8688 15.02310102680649
COSMOS 2251 DEB         
1 34295U 93036MR  21273.37877604  .00002151  00000-0  36815-3 0  9996
2 34295  74.0149 249.7934 0078304 155.0079 319.3958 14.67474621670820
COSMOS 2251 DEB         
1 34297U 93036MT  21274.04143160  .00000092  00000-0  41524-4 0  9992
2 34297  74.0495 215.6397 0018763 304.5604 137.2324 14.34871991660850
COSMOS 2251 DEB         
1 34298U 93036MU  21273.45587697  .00003687  00000-0  78047-3 0  9996
2 34298  74.0532  51.4802 0036926 109.1624 251.3545 14.59193827666213
COSMOS 2251 DEB         
1 34299U 93036MV  21273.50295302  .00002014  00000-0  37549-3 0  9997
2 34299  74.0240  99.2257 0221988 216.0649 142.5367 14.51087625664078
COSMOS 2251 DEB         
1 34300U 93036MW  21273.28010256  .00001645  00000-0  39264-3 0  9993
2 34300  74.0220 131.8323 0140319 253.9321 104.6350 14.48732775662978
COSMOS 2251 DEB         
1 34301U 93036MX  21274.25378130  .00001532  00000-0  47425-3 0  9993
2 34301  74.0239 194.3949 0039236 265.0228 217.2798 14.41656298661213
COSMOS 2251 DEB         
1 34302U 93036MY  21273.37149252  .00000861  00000-0  33011-3 0  9997
2 34302  74.1870  24.0138 0089483 311.2474 104.2985 14.29825173657350
COSMOS 2251 DEB         
1 34303U 93036MZ  21273.41937851  .00001539  00000-0  46074-3 0  9999
2 34303  74.0118 257.7625 0181230  42.7687 107.7911 14.34617161658480
COSMOS 2251 DEB         
1 34304U 93036NA  21273.32047624  .00000990  00000-0  39114-3 0  9997
2 34304  74.0209  33.2781 0154278 172.8014 218.4490 14.23991064653744
COSMOS 2251 DEB         
1 34307U 93036ND  21273.96131880  .00000600  00000-0  58281-3 0  9992
2 34307  74.0550 244.5779 0403120  46.7332   8.9925 13.50384737621488
COSMOS 2251 DEB         
1 34308U 93036NE  21273.28288144  .00004943  00000-0  77151-3 0  9995
2 34308  73.9956 207.1604 0045705   7.1101 145.6371 14.72438606671787
COSMOS 2251 DEB         
1 34313U 93036NK  21273.47361355  .00001957  00000-0  48150-3 0  9997
2 34313  74.0016  44.7726 0052770 198.6512 161.2717 14.52136121665397
COSMOS 2251 DEB         
1 34314U 93036NL  21274.12109973  .00000197  00000-0  11305-3 0  9994
2 34314  74.0084 152.3960 0112593 248.6411 265.4492 14.12735644649854
COSMOS 2251 DEB         
1 34315U 93036NM  21273.26528828  .00012949  00000-0  79413-3 0  9995
2 34315  74.1041 326.7011 0041882 312.6283  47.1380 15.09429443682463
COSMOS 2251 DEB         
1 34316U 93036NN  21273.47930706  .00001414  00000-0  34011-3 0  9991
2 34316  74.0789  46.8285 0017826 193.5181 166.5507 14.54160082667526
COSMOS 2251 DEB         
1 34317U 93036NP  21274.33701959  .00000315  00000-0  29490-3 0  9998
2 34317  73.9278  32.6783 0344897 312.8539  73.9969 13.62216387627615
COSMOS 2251 DEB         
1 34319U 93036NR  21273.44211083  .00003644  00000-0  80010-3 0  9998
2 34319  74.0316  57.9859 0026052 126.5659 233.7908 14.57731091665844
COSMOS 2251 DEB         
1 34321U 93036NT  21273.36802734  .00000450  00000-0  14502-3 0  9996
2 34321  74.0310 135.8286 0017894 277.4685 255.8849 14.41975694663221
COSMOS 2251 DEB         
1 34323U 93036NV  21273.13444515  .00001018  00000-0  29677-3 0  9992
2 34323  73.9678 152.5304 0110288 191.3883 322.9588 14.42007826661509
COSMOS 2251 DEB         
1 34325U 93036NX  21274.49721441  .00001265  00000-0  78901-3 0  9998
2 34325  73.8771 347.3419 0220818 294.1814  75.6772 13.94581020641179
COSMOS 2251 DEB         
1 34327U 93036NZ  21273.48255804  .00000935  00000-0  19754-3 0  9997
2 34327  74.0059 271.7975 0050256 108.3884  48.6909 14.60050019669917
COSMOS 2251 DEB         
1 34330U 93036PC  21273.46506067  .00002634  00000-0  60345-3 0  9999
2 34330  74.0382  31.0176 0010992 163.0479 267.3290 14.56085761666749
COSMOS 2251 DEB         
1 34331U 93036PD  21272.98094421  .00002489  00000-0  60951-3 0  9993
2 34331  74.0294 117.3126 0050799  88.4640 272.2340 14.52244795663809
COSMOS 2251 DEB         
1 34337U 93036PK  21274.12104195  .00006469  00000-0  43861-3 0  9990
2 34337  73.9800 175.6105 0092545 321.8217  37.6438 15.03161110684539
COSMOS 2251 DEB         
1 34340U 93036PN  21274.46721774  .00000429  00000-0  34559-3 0  9993
2 34340  74.0814 334.5375 0302111  77.0581 300.3956 13.73700776631913
COSMOS 2251 DEB         
1 34342U 93036PQ  21273.51614387  .00001679  00000-0  27759-3 0  9993
2 34342  74.1746 294.7592 0106952 343.9820 177.4018 14.67450225672747
COSMOS 2251 DEB         
1 34343U 93036PR  21273.03227802  .00000858  00000-0  24618-3 0  9992
2 34343  74.0278 113.2623 0030354  55.9146 103.1365 14.46159090664206
COSMOS 2251 DEB         
1 34344U 93036PS  21273.50925404  .00000787  00000-0  45251-3 0  9995
2 34344  73.9835 293.7658 0171147  92.2340  30.7831 14.03662178644932
COSMOS 2251 DEB         
1 34346U 93036PU  21273.53870905  .00000578  00000-0  38388-3 0  9996
2 34346  73.9997  73.7222 0225295 226.4827 206.2972 13.91949416640156
COSMOS 2251 DEB         
1 34383U 93036PY  21274.02324252  .00001926  00000-0  46266-3 0  9993
2 34383  74.0402  29.1672 0014221 169.9860 309.4429 14.54024179666079
COSMOS 2251 DEB         
1 34386U 93036QB  21273.51977181  .00002487  00000-0  60385-3 0  9995
2 34386  74.0285  74.9728 0014511 148.7773 267.9771 14.53355269664062
COSMOS 2251 DEB         
1 34387U 93036QC  21274.12380527  .00000288  00000-0  10094-3 0  9995
2 34387  74.0435 168.8065 0042276 284.6866 204.2898 14.39015928661171
COSMOS 2251 DEB         
1 34388U 93036QD  21273.52355499  .00000561  00000-0  19007-3 0  9996
2 34388  74.0450 190.4043 0018107 256.8904 278.1623 14.38996579660260
COSMOS 2251 DEB         
1 34389U 93036QE  21274.49496822  .00000327  00000-0  12049-3 0  9999
2 34389  74.0227 197.8616 0032312 318.1935 160.1893 14.36245626659681
COSMOS 2251 DEB         
1 34390U 93036QF  21274.38937720  .00001350  00000-0  29113-3 0  9993
2 34390  74.0927  17.9650 0073350  55.8638  20.2352 14.57740391666790
COSMOS 2251 DEB         
1 34395U 93036QL  21273.53851944  .00003581  00000-0  76908-3 0  9999
2 34395  74.0433  47.6823 0012579  65.1010  11.3678 14.58916639664435
COSMOS 2251 DEB         
1 34396U 93036QM  21274.07080483  .00001079  00000-0  31796-3 0  9998
2 34396  74.0412 145.8483 0018617 213.0447 298.0574 14.44739307661035
COSMOS 2251 DEB         
1 34397U 93036QN  21273.49439764  .00003498  00000-0  38874-3 0  9995
2 34397  73.8480 276.2306 0076398 299.1715 218.7314 14.85504062677046
